OBJECT_NAME,OBJECT_ID,EPOCH,MEAN_MOTION,ECCENTRICITY,INCLINATION,RA_OF_ASC_NODE,ARG_OF_PERICENTER,MEAN_ANOMALY,EPHEMERIS_TYPE,CLASSIFICATION_TYPE,NORAD_CAT_ID,ELEMENT_SET_NO,REV_AT_EPOCH,BSTAR,MEAN_MOTION_DOT,MEAN_MOTION_DDOT
ATLAS CENTAUR 2,1963-047A,2026-07-19T07:05:28.817952,14.12567821,.05456662,30.3519,179.8230,160.6849,201.5315,0,U,694,999,15024,.41214239E-4,.449E-5,0
THOR AGENA D R/B,1964-002A,2026-07-19T01:00:45.426816,14.34077113,.00319528,99.1155,220.4924,235.0134,124.8048,0,U,733,999,25712,.40906313E-4,.66E-6,0
SL-3 R/B,1964-053B,2026-07-18T17:45:16.553952,14.61440630,.00801347,65.0780,306.9961,251.2001,108.0395,0,U,877,999,28594,.28506716E-4,.21E-6,0
SL-8 R/B,1967-045B,2026-07-19T04:39:50.036832,14.45696623,.00630699,74.0110,102.4801,78.0186,282.8032,0,U,2802,999,10802,.42694683E-4,.127E-5,0
SL-8 R/B,1968-040B,2026-07-18T23:32:24.367776,15.03950508,.00248673,74.0291,45.2600,192.4687,167.5890,0,U,3230,999,10974,.10895462E-3,.1469E-4,0
OAO 2,1968-110A,2026-07-19T06:29:41.548992,14.47362530,.00053807,34.9926,250.5387,178.8314,181.2390,0,U,3597,999,3817,.23054362E-4,.67E-6,0
ISIS 1,1969-009A,2026-07-19T05:38:02.265216,11.30436927,.1707207,88.4453,140.8811,183.5003,175.2665,0,U,3669,999,36339,.47185406E-4,.78E-6,0
SERT 2,1970-009A,2026-07-19T07:23:03.668640,13.58741149,.00047255,99.2839,136.2973,178.1433,346.6886,0,U,4327,999,79776,.38078514E-4,-.14E-6,0
SL-3 R/B,1971-028B,2026-07-19T05:09:49.462848,15.72743695,.00147633,81.2296,248.1694,168.2410,191.9197,0,U,5118,999,927,.2467316E-3,.33535E-3,0
ASTEX 1,1971-089A,2026-07-19T00:07:09.870240,14.50873168,.00158313,92.7009,194.1036,10.0570,350.0950,0,U,5560,999,88134,.61312879E-4,.241E-5,0
SL-8 R/B,1971-119B,2026-07-19T06:15:59.202432,14.39766584,.05425703,73.8872,289.3295,228.8371,126.4774,0,U,5730,999,67441,.20394156E-3,.3961E-4,0
OAO 3 (COPERNICUS),1972-065A,2026-07-19T07:23:37.496832,14.60075908,.00063131,35.0054,267.3825,162.3604,257.6885,0,U,6153,999,86544,.26300006E-4,.107E-5,0
ATLAS CENTAUR R/B,1972-065B,2026-07-18T11:42:41.494464,14.77967946,.0033268,35.0008,259.0355,30.5275,329.7355,0,U,6155,999,86062,.45589897E-4,.311E-5,0
SL-8 R/B,1975-112B,2026-07-19T05:53:40.535520,14.38259327,.0016039,74.0609,136.8974,198.8533,161.2030,0,U,8459,999,65078,.50796242E-4,.128E-5,0
SL-3 R/B,1977-057B,2026-07-19T05:03:22.302720,15.48460202,.00076209,97.5860,18.3195,156.3773,203.7829,0,U,10114,999,68866,.10883397E-3,.5684E-4,0
SEASAT 1,1978-064A,2026-07-19T04:40:54.138720,14.46261194,.00010507,108.0181,41.4821,261.7414,98.3612,0,U,10967,999,52552,.34370477E-4,-.15E-6,0
SL-14 R/B,1979-011B,2026-07-19T07:11:11.550336,14.92040028,.00153939,82.5259,331.6782,343.2657,16.8052,0,U,11267,999,54840,.22625001E-4,.256E-5,0
SL-8 R/B,1979-089B,2026-07-19T07:36:28.353312,14.42415654,.00161716,74.0668,207.3783,341.3741,18.6822,0,U,11574,999,45508,.3352674E-4,.85E-6,0
SL-14 R/B,1980-005B,2026-07-19T04:45:05.350176,14.91051961,.00173525,82.5140,182.4745,85.4148,274.9053,0,U,11672,999,49608,.26228606E-4,.286E-5,0
SL-8 R/B,1981-003B,2026-07-18T22:17:06.783072,15.15165773,.02498258,82.9374,168.2622,80.6963,282.2426,0,U,12139,999,33452,.34992644E-3,.14785E-3,0
SL-3 R/B,1981-046B,2026-07-19T06:11:28.665024,15.44835223,.0015648,81.2314,131.4173,281.6000,78.3488,0,U,12465,999,45872,.13782932E-3,.652E-4,0
SL-3 R/B,1981-103B,2026-07-19T06:13:58.710720,15.22505100,.00122964,81.1566,58.9443,197.6231,162.4576,0,U,12904,999,99324,.8589691E-4,.2019E-4,0
SL-3 R/B,1982-013B,2026-07-19T05:18:33.501312,15.22978133,.00229173,81.1737,6.4476,95.5047,264.8800,0,U,13068,999,42436,.85958799E-4,.2061E-4,0
SL-3 R/B,1982-039B,2026-07-19T05:25:55.796736,15.10710301,.00287305,81.1513,64.0749,244.7133,115.1116,0,U,13154,999,40149,.83357477E-4,.1417E-4,0
SL-3 R/B,1982-079B,2026-07-19T05:57:02.848032,15.26035043,.00249086,81.1448,37.5534,80.5065,279.8983,0,U,13403,999,39775,.95507417E-4,.2507E-4,0
SL-14 R/B,1982-092B,2026-07-19T00:46:14.049984,14.86766296,.00192269,82.5671,18.4992,222.1897,259.9122,0,U,13553,999,34844,.19651806E-4,.2E-5,0
SL-3 R/B,1983-010B,2026-07-19T06:43:56.866656,15.49975008,.00130229,81.1002,200.4133,308.0206,51.9864,0,U,13819,999,37830,.13613791E-3,.7678E-4,0
SL-3 R/B,1983-075B,2026-07-19T05:11:52.721952,15.41026889,.0022373,97.6110,210.0427,116.3310,244.0237,0,U,14208,999,35039,.13773919E-3,.5641E-4,0
COSMOS 1536,1984-013A,2026-07-19T02:42:17.116704,15.25372608,.00143194,82.5463,337.0384,174.5369,185.6028,0,U,14699,999,29264,.1481775E-3,.3781E-4,0
SL-14 R/B,1984-027B,2026-07-19T04:45:23.411232,14.86080519,.00163451,82.5429,121.7004,256.9658,102.9734,0,U,14820,999,26716,.21139575E-4,.21E-5,0
