ATLAS CENTAUR 2         
1 00694U 63047A   26200.29547243  .00000449  00000+0  41214-4 0  9997
2 00694  30.3519 179.8230 0545666 160.6849 201.5315 14.12567821150244
THOR AGENA D R/B        
1 00733U 64002A   26200.04219244  .00000066  00000+0  40906-4 0  9995
2 00733  99.1155 220.4924 0031952 235.0134 124.8048 14.34077113257121
SL-3 R/B                
1 00877U 64053B   26199.73977493  .00000021  00000+0  28507-4 0  9994
2 00877  65.0780 306.9961 0080134 251.2001 108.0395 14.61440630285944
SL-8 R/B                
1 02802U 67045B   26200.19432913  .00000127  00000+0  42695-4 0  9995
2 02802  74.0110 102.4801 0063069  78.0186 282.8032 14.45696623108029
SL-8 R/B                
1 03230U 68040B   26199.98083759  .00001469  00000+0  10895-3 0  9997
2 03230  74.0291  45.2600 0024867 192.4687 167.5890 15.03950508109747
OAO 2                   
1 03597U 68110A   26200.27061978  .00000067  00000+0  23054-4 0  9990
2 03597  34.9926 250.5387 0005380 178.8314 181.2390 14.47362530 38175
ISIS 1                  
1 03669U 69009A   26200.23474844  .00000078  00000+0  47185-4 0  9997
2 03669  88.4453 140.8811 1707207 183.5003 175.2665 11.30436927363397
SERT 2                  
1 04327U 70009A   26200.30768135 -.00000014  00000+0  38079-4 0  9991
2 04327  99.2839 136.2973 0004725 178.1433 346.6886 13.58741149797764
SL-3 R/B                
1 05118U 71028B   26200.21515582  .00033535  00000+0  24673-3 0  9995
2 05118  81.2296 248.1694 0014763 168.2410 191.9197 15.72743695  9276
ASTEX 1                 
1 05560U 71089A   26200.00497535  .00000241  00000+0  61313-4 0  9998
2 05560  92.7009 194.1036 0015831  10.0570 350.0950 14.50873168881349
SL-8 R/B                
1 05730U 71119B   26200.26110188  .00003961  00000+0  20394-3 0  9990
2 05730  73.8872 289.3295 0542570 228.8371 126.4774 14.39766584674410
OAO 3 (COPERNICUS)      
1 06153U 72065A   26200.30807288  .00000107  00000+0  26300-4 0  9993
2 06153  35.0054 267.3825 0006313 162.3604 257.6885 14.60075908865440
ATLAS CENTAUR R/B       
1 06155U 72065B   26199.48798026  .00000311  00000+0  45590-4 0  9999
2 06155  35.0008 259.0355 0033268  30.5275 329.7355 14.77967946860624
SL-8 R/B                
1 08459U 75112B   26200.24560805  .00000128  00000+0  50796-4 0  9993
2 08459  74.0609 136.8974 0016039 198.8533 161.2030 14.38259327650781
SL-3 R/B                
1 10114U 77057B   26200.21067480  .00005684  00000+0  10883-3 0  9996
2 10114  97.5860  18.3195 0007620 156.3773 203.7829 15.48460202688665
SEASAT 1                
1 10967U 78064A   26200.19507105 -.00000015  00000+0  34370-4 0  9993
2 10967 108.0181  41.4821 0001050 261.7414  98.3612 14.46261194525521
SL-14 R/B               
1 11267U 79011B   26200.29943924  .00000256  00000+0  22625-4 0  9990
2 11267  82.5259 331.6782 0015393 343.2657  16.8052 14.92040028548404
SL-8 R/B                
1 11574U 79089B   26200.31699483  .00000085  00000+0  33527-4 0  9990
2 11574  74.0668 207.3783 0016171 341.3741  18.6822 14.42415654455085
SL-14 R/B               
1 11672U 80005B   26200.19797859  .00000286  00000+0  26229-4 0  9995
2 11672  82.5140 182.4745 0017352  85.4148 274.9053 14.91051961496082
SL-8 R/B                
1 12139U 81003B   26199.92855073  .00014785  00000+0  34993-3 0  9999
2 12139  82.9374 168.2622 0249825  80.6963 282.2426 15.15165773334524
SL-3 R/B                
1 12465U 81046B   26200.25797066  .00006520  00000+0  13783-3 0  9996
2 12465  81.2314 131.4173 0015648 281.6000  78.3488 15.44835223458721
SL-3 R/B                
1 12904U 81103B   26200.25970730  .00002019  00000+0  85897-4 0  9994
2 12904  81.1566  58.9443 0012296 197.6231 162.4576 15.22505100993246
SL-3 R/B                
1 13068U 82013B   26200.22122108  .00002061  00000+0  85959-4 0  9998
2 13068  81.1737   6.4476 0022917  95.5047 264.8800 15.22978133424363
SL-3 R/B                
1 13154U 82039B   26200.22634024  .00001417  00000+0  83357-4 0  9991
2 13154  81.1513  64.0749 0028730 244.7133 115.1116 15.10710301401492
SL-3 R/B                
1 13403U 82079B   26200.24794963  .00002507  00000+0  95507-4 0  9994
2 13403  81.1448  37.5534 0024908  80.5065 279.8983 15.26035043397759
SL-14 R/B               
1 13553U 82092B   26200.03210706  .00000200  00000+0  19652-4 0  9995
2 13553  82.5671  18.4992 0019226 222.1897 259.9122 14.86766296348440
SL-3 R/B                
1 13819U 83010B   26200.28051929  .00007678  00000+0  13614-3 0  9995
2 13819  81.1002 200.4133 0013022 308.0206  51.9864 15.49975008378308
SL-3 R/B                
1 14208U 83075B   26200.21658243  .00005641  00000+0  13774-3 0  9999
2 14208  97.6110 210.0427 0022373 116.3310 244.0237 15.41026889350395
COSMOS 1536             
1 14699U 84013A   26200.11269811  .00003781  00000+0  14818-3 0  9997
2 14699  82.5463 337.0384 0014319 174.5369 185.6028 15.25372608292642
SL-14 R/B               
1 14820U 84027B   26200.19818763  .00000210  00000+0  21140-4 0  9993
2 14820  82.5429 121.7004 0016345 256.9658 102.9734 14.86080519267162
